ONEWEB-0027             
1 45432U 20020J   23317.91312247 -.00000174  00000+0 -48015-3 0  9991
2 45432  87.9236 193.9535 0001680  86.6102 273.5222 13.17649889181748
ONEWEB-0064             
1 45433U 20020K   23317.95270792 -.00000352  00000+0 -10278-2 0  9991
2 45433  87.8999 209.0751 0001406  85.2166 274.9123 13.11415200178668
ONEWEB-0018             
1 45434U 20020L   23317.45110987  .00000323  00000+0  87530-3 0  9998
2 45434  87.9008 209.1662 0001617  68.3698 291.7602 13.11423072178541
ONEWEB-0083             
1 45435U 20020M   23317.21085823  .00000244  00000+0  65270-3 0  9992
2 45435  87.9000 209.1963 0001871  83.8021 276.3320 13.11419392178559
ONEWEB-0095             
1 45436U 20020N   23317.20286993 -.00000377  00000+0 -10988-2 0  9997
2 45436  87.9005 209.2347 0001967  80.6503 279.4847 13.11418329178555
ONEWEB-0092             
1 45437U 20020P   23317.93324176  .00000411  00000+0  11246-2 0  9999
2 45437  87.9000 209.0697 0001963  79.6085 280.5264 13.11417943178766
ONEWEB-0085             
1 45438U 20020Q   23317.20434797 -.00000473  00000+0 -13707-2 0  9995
2 45438  87.9000 209.2201 0001442  71.5360 288.5924 13.11417910178551
ONEWEB-0096             
1 45439U 20020R   23317.44135638 -.00000123  00000+0 -38249-3 0  9995
2 45439  87.8997 209.1468 0001565  64.8973 295.2317 13.11414696178572
